NORAD_CAT_ID,OBJECT_NAME,OBJECT_TYPE,EPOCH,MEAN_MOTION,ECCENTRICITY,INCLINATION,RA_OF_ASC_NODE,ARG_OF_PERICENTER,MEAN_ANOMALY,BSTAR,MEAN_MOTION_DOT,MEAN_MOTION_DDOT,TLE_LINE0,TLE_LINE1,TLE_LINE2,SEMIMAJOR_AXIS,PERIOD,APOGEE,PERIGEE,DECAYED
52631.0,STARLINK-3794,PAYLOAD,2024-05-09 10:04:06,15.08865276,0.0001312,53.2185,33.603,87.865,272.2492,0.00094421,0.00014781,0.0,0 STARLINK-3794,1 52631U 22052AK  24130.41951596  .00014781  00000-0  94421-3 0  9992,2 52631  53.2185  33.6030 0001312  87.8650 272.2492 15.08865276110333,6917.803,95.436,540.576,538.761,0.0
52631.0,STARLINK-3794,PAYLOAD,2024-05-09 21:11:48,15.08837641,0.0001275,53.2187,31.5208,72.5102,287.603,5.0971e-05,5.23e-06,0.0,0 STARLINK-3794,1 52631U 22052AK  24130.88320176  .00000523  00000-0  50971-4 0  9999,2 52631  53.2187  31.5208 0001275  72.5102 287.6030 15.08837641110401,6917.888,95.438,540.635,538.871,0.0
52631.0,STARLINK-3794,PAYLOAD,2024-05-09 22:47:11,15.08840035,0.0001412,53.2185,31.2233,78.0426,282.0724,0.00017975,2.574e-05,0.0,0 STARLINK-3794,1 52631U 22052AK  24130.94944185  .00002574  00000-0  17975-3 0  9992,2 52631  53.2185  31.2233 0001412  78.0426 282.0724 15.08840035110047,6917.88,95.438,540.722,538.768,0.0
52631.0,STARLINK-3794,PAYLOAD,2024-05-10 09:54:53,15.08863141,0.0001479,53.2197,29.1445,95.1058,265.0103,0.0011679,0.0001836,0.0,0 STARLINK-3794,1 52631U 22052AK  24131.41311679  .00018360  00000-0  11679-2 0  9995,2 52631  53.2197  29.1445 0001479  95.1058 265.0103 15.08863141110488,6917.81,95.436,540.698,538.652,0.0
52631.0,STARLINK-3794,PAYLOAD,2024-05-10 21:02:35,15.08843406,0.0001397,53.2185,27.0622,99.5337,260.5813,0.00095067,0.00014876,0.0,0 STARLINK-3794,1 52631U 22052AK  24131.87680162  .00014876  00000-0  95067-3 0  9993,2 52631  53.2185  27.0622 0001397  99.5337 260.5813 15.08843406110554,6917.87,95.437,540.701,538.769,0.0
52631.0,STARLINK-3794,PAYLOAD,2024-05-10 22:37:58,15.08852338,0.0001419,53.2183,26.7648,101.5855,258.5296,0.001428,0.00022519,0.0,0 STARLINK-3794,1 52631U 22052AK  24131.94304100  .00022519  00000-0  14280-2 0  9996,2 52631  53.2183  26.7648 0001419 101.5855 258.5296 15.08852338110196,6917.843,95.437,540.689,538.726,0.0
52631.0,STARLINK-3794,PAYLOAD,2024-05-11 01:48:45,15.08856423,0.0001425,53.2185,26.1703,101.2928,258.8224,0.0032362,0.00051617,0.0,0 STARLINK-3794,1 52631U 22052AK  24132.07552348  .00051617  00000-0  32362-2 0  9992,2 52631  53.2185  26.1703 0001425 101.2928 258.8224 15.08856423110585,6917.83,95.437,540.681,538.709,0.0
52631.0,STARLINK-3794,PAYLOAD,2024-05-11 20:53:21,15.0878001,0.0003325,53.217,22.6014,3.6666,356.435,0.0036706,0.00058522,0.0,0 STARLINK-3794,1 52631U 22052AK  24132.87039303  .00058522  00000-0  36706-2 0  9999,2 52631  53.2170  22.6014 0003325   3.6666 356.4350 15.08780010110707,6918.064,95.441,542.229,537.629,0.0
52631.0,STARLINK-3794,PAYLOAD,2024-05-11 22:28:44,15.08751247,9.23e-05,53.2166,22.3055,102.883,257.2265,0.001488,0.00023415,0.0,0 STARLINK-3794,1 52631U 22052AK  24132.93663133  .00023415  00000-0  14880-2 0  9992,2 52631  53.2166  22.3055 0000923 102.8830 257.2265 15.08751247110343,6918.152,95.443,540.655,539.378,0.0
52631.0,STARLINK-3794,PAYLOAD,2024-05-12 01:39:31,15.08782231,8.7e-05,53.2166,21.711,88.7602,271.3489,-0.001171,-0.00018846,0.0,0 STARLINK-3794,1 52631U 22052AK  24133.06912025 -.00018846  00000-0 -11710-2 0  9997,2 52631  53.2166  21.7110 0000870  88.7602 271.3489 15.08782231110733,6918.057,95.441,540.524,539.32,0.0
52631.0,STARLINK-3794,PAYLOAD,2024-05-12 09:36:29,15.08762806,8.43e-05,53.2163,20.223,107.2459,252.8626,0.00099861,0.00015607,0.0,0 STARLINK-3794,1 52631U 22052AK  24133.40033729  .00015607  00000-0  99861-3 0  9994,2 52631  53.2163  20.2230 0000843 107.2459 252.8626 15.08762806110412,6918.116,95.442,540.565,539.398,0.0
52631.0,STARLINK-3794,PAYLOAD,2024-05-12 22:19:35,15.08804628,9.41e-05,53.2148,17.8466,105.0434,255.0662,0.0020484,0.00032431,0.0,0 STARLINK-3794,1 52631U 22052AK  24133.93027535  .00032431  00000-0  20484-2 0  9998,2 52631  53.2148  17.8466 0000941 105.0434 255.0662 15.08804628110498,6917.989,95.44,540.504,539.203,0.0
52631.0,STARLINK-3794,PAYLOAD,2024-05-12 23:54:58,15.08821939,0.0001159,53.2163,17.5461,101.177,258.9352,0.0027708,0.00044063,0.0,0 STARLINK-3794,1 52631U 22052AK  24133.99651559  .00044063  00000-0  27708-2 0  9993,2 52631  53.2163  17.5461 0001159 101.1770 258.9352 15.08821939110873,6917.936,95.439,540.602,538.999,0.0
52631.0,STARLINK-3794,PAYLOAD,2024-05-13 15:48:49,15.08881392,0.0001083,53.2165,14.5721,98.0499,262.0616,0.0030109,0.00048011,0.0,0 STARLINK-3794,1 52631U 22052AK  24134.65890912  .00048011  00000-0  30109-2 0  9991,2 52631  53.2165  14.5721 0001083  98.0499 262.0616 15.08881392110608,6917.754,95.435,540.368,538.87,0.0
52631.0,STARLINK-3794,PAYLOAD,2024-05-14 09:18:02,15.08905495,0.0001114,53.218,11.2962,96.9087,263.2032,0.0018686,0.00029629,0.0,0 STARLINK-3794,1 52631U 22052AK  24135.38752851  .00029629  00000-0  18686-2 0  9991,2 52631  53.2180  11.2962 0001114  96.9087 263.2032 15.08905495111080,6917.68,95.433,540.316,538.775,0.0
52631.0,STARLINK-3794,PAYLOAD,2024-05-14 22:01:07,15.08861845,0.0001498,53.2168,8.9208,90.5257,269.5906,0.0017397,0.00027524,0.0,0 STARLINK-3794,1 52631U 22052AK  24135.91744646  .00027524  00000-0  17397-2 0  9993,2 52631  53.2168   8.9208 0001498  90.5257 269.5906 15.08861845110792,6917.814,95.436,540.715,538.642,0.0
52631.0,STARLINK-3794,PAYLOAD,2024-05-15 01:11:53,15.0887248,0.0001581,53.2167,8.3259,91.5094,268.6079,0.0019696,0.00031225,0.0,0 STARLINK-3794,1 52631U 22052AK  24136.04992424  .00031225  00000-0  19696-2 0  9994,2 52631  53.2167   8.3259 0001581  91.5094 268.6079 15.08872480111186,6917.781,95.436,540.74,538.552,0.0
52631.0,STARLINK-3794,PAYLOAD,2024-05-15 09:08:48,15.08879355,0.0001505,53.2167,6.8378,98.0426,262.0736,0.0015618,0.00024682,0.0,0 STARLINK-3794,1 52631U 22052AK  24136.38111719  .00024682  00000-0  15618-2 0  9990,2 52631  53.2167   6.8378 0001505  98.0426 262.0736 15.08879355111230,6917.76,95.435,540.666,538.584,0.0
52631.0,STARLINK-3794,PAYLOAD,2024-05-15 20:16:30,15.08835576,0.0001708,53.2176,4.756,118.7575,241.3589,6.9666e-05,8.21e-06,0.0,0 STARLINK-3794,1 52631U 22052AK  24136.84480296  .00000821  00000-0  69666-4 0  9993,2 52631  53.2176   4.7560 0001708 118.7575 241.3589 15.08835576111301,6917.894,95.438,540.94,538.577,0.0
52631.0,STARLINK-3794,PAYLOAD,2024-05-15 21:51:54,15.08837359,0.0001496,53.2183,4.4612,99.5125,260.6036,0.00029521,4.413e-05,0.0,0 STARLINK-3794,1 52631U 22052AK  24136.91104437  .00004413  00000-0  29521-3 0  9997,2 52631  53.2183   4.4612 0001496  99.5125 260.6036 15.08837359110946,6917.888,95.438,540.788,538.719,0.0
52631.0,STARLINK-3794,PAYLOAD,2024-05-16 01:02:40,15.08846489,0.0001472,53.218,3.8658,103.7143,256.4013,0.001056,0.00016561,0.0,0 STARLINK-3794,1 52631U 22052AK  24137.04352463  .00016561  00000-0  10560-2 0  9995,2 52631  53.2180   3.8658 0001472 103.7143 256.4013 15.08846489111334,6917.861,95.437,540.744,538.707,0.0
52631.0,STARLINK-3794,PAYLOAD,2024-05-16 15:21:09,15.08848566,0.0001448,53.2178,1.1875,108.2747,251.8403,0.0011872,0.00018661,0.0,0 STARLINK-3794,1 52631U 22052AK  24137.63968847  .00018661  00000-0  11872-2 0  9999,2 52631  53.2178   1.1875 0001448 108.2747 251.8403 15.08848566111426,6917.854,95.437,540.721,538.718,0.0
52631.0,STARLINK-3794,PAYLOAD,2024-05-16 21:42:41,15.08849539,0.0001404,53.2179,359.9994,90.8852,269.2301,0.001023,0.00016035,0.0,0 STARLINK-3794,1 52631U 22052AK  24137.90464861  .00016035  00000-0  10230-2 0  9996,2 52631  53.2179 359.9994 0001404  90.8852 269.2301 15.08849539111092,6917.851,95.437,540.687,538.745,0.0
52631.0,STARLINK-3794,PAYLOAD,2024-05-17 21:33:29,15.0885044,4.94e-05,53.2188,355.5403,31.5423,328.5599,0.0011573,0.00018184,0.0,0 STARLINK-3794,1 52631U 22052AK  24138.89825473  .00018184  00000-0  11573-2 0  9993,2 52631  53.2188 355.5403 0000494  31.5423 328.5599 15.08850440111612,6917.848,95.437,540.055,539.372,0.0
52631.0,STARLINK-3794,PAYLOAD,2024-05-18 07:05:47,15.0886349,0.0001011,53.2174,353.7546,68.8109,291.2991,0.0011278,0.00017718,0.0,0 STARLINK-3794,1 52631U 22052AK  24139.29568956  .00017718  00000-0  11278-2 0  9992,2 52631  53.2174 353.7546 0001011  68.8109 291.2991 15.08863490111302,6917.809,95.436,540.373,538.974,0.0
52631.0,STARLINK-3794,PAYLOAD,2024-05-18 21:24:16,15.0884501,9.66e-05,53.2148,351.0777,63.0489,297.0602,0.0010634,0.00016679,0.0,0 STARLINK-3794,1 52631U 22052AK  24139.89185663  .00016679  00000-0  10634-2 0  9998,2 52631  53.2148 351.0777 0000966  63.0489 297.0602 15.08845010111767,6917.865,95.437,540.398,539.062,0.0
52631.0,STARLINK-3794,PAYLOAD,2024-05-19 13:18:07,15.08850851,0.0001072,53.2141,348.1067,95.0706,265.0409,0.00070648,0.00010977,0.0,0 STARLINK-3794,1 52631U 22052AK  24140.55425499  .00010977  00000-0  70648-3 0  9994,2 52631  53.2141 348.1067 0001072  95.0706 265.0409 15.08850851111865,6917.847,95.437,540.454,538.971,0.0
52631.0,STARLINK-3794,PAYLOAD,2024-05-19 19:39:40,15.08841766,9.93e-05,53.2143,346.9156,79.2791,280.8313,0.00023249,3.414e-05,0.0,0 STARLINK-3794,1 52631U 22052AK  24140.81921668  .00003414  00000-0  23249-3 0  9995,2 52631  53.2143 346.9156 0000993  79.2791 280.8313 15.08841766111900,6917.875,95.437,540.427,539.053,0.0
52631.0,STARLINK-3794,PAYLOAD,2024-05-20 13:08:55,15.08836148,0.0001228,53.2165,343.6437,110.8419,249.2704,0.0001691,2.404e-05,0.0,0 STARLINK-3794,1 52631U 22052AK  24141.54785942  .00002404  00000-0  16910-3 0  9994,2 52631  53.2165 343.6437 0001228 110.8419 249.2704 15.08836148111643,6917.892,95.438,540.607,538.908,0.0
52631.0,STARLINK-3794,PAYLOAD,2024-05-20 21:05:50,15.0884011,0.0001275,53.2166,342.1579,97.552,262.5617,8.8697e-05,1.124e-05,0.0,0 STARLINK-3794,1 52631U 22052AK  24141.87905908  .00001124  00000-0  88697-4 0  9996,2 52631  53.2166 342.1579 0001275  97.5520 262.5617 15.08840110112063,6917.88,95.438,540.627,538.863,0.0
